STARLINK-36739          
1 67802U 26032F   26069.94078737  .00289908  00000+0  18718-2 0  9996
2 67802  97.2854 256.5405 0001452  82.3033 277.8397 15.75281975  4982
STARLINK-36768          
1 67803U 26032G   26069.95314723  .00257728  00000+0  16698-2 0  9996
2 67803  97.2845 256.5230 0001446  71.4107 288.7315 15.75291727  4980
STARLINK-36792          
1 67804U 26032H   26069.95561125  .00160890  00000+0  10576-2 0  9999
2 67804  97.2849 256.5192 0001790  88.7035 271.4435 15.75227678  4981
STARLINK-36782          
1 67805U 26032J   26069.91670139 -.00027065  00000+0 -18120-3 0  9994
2 67805  97.2847 256.5373 0001215  92.3853 187.2492 15.75184696  4970
STARLINK-36389          
1 67806U 26032K   26069.94431642  .00279241  00000+0  18057-2 0  9993
2 67806  97.2846 256.5340 0001578  84.9994 275.1452 15.75276904  4987
STARLINK-36382          
1 67807U 26032L   26069.94219850  .00330822  00000+0  21248-2 0  9998
2 67807  97.2848 256.5364 0001300  82.7371 277.4042 15.75289934  4981
STARLINK-36811          
1 67808U 26032M   26069.93231738  .00283145  00000+0  18303-2 0  9990
2 67808  97.2849 256.5511 0001663  51.9937 308.1478 15.75274346  4981
STARLINK-36795          
1 67809U 26032N   26069.94925470  .00283284  00000+0  18303-2 0  9999
2 67809  97.2847 256.5268 0001861  71.7312 288.4155 15.75284304  4983
STARLINK-36807          
1 67810U 26032P   26069.93337565  .00224945  00000+0  14655-2 0  9997
2 67810  97.2851 256.5481 0001236  57.9135 302.2250 15.75254671  4987
STARLINK-36733          
1 67811U 26032Q   26069.91670139  .00167877  00000+0  11082-2 0  9994
2 67811  97.2843 256.5538 0001456  88.8108 230.8364 15.75110938  4977
STARLINK-36377          
1 67812U 26032R   26069.91670139  .00175430  00000+0  11574-2 0  9995
2 67812  97.2845 256.5601 0001266  81.4124 252.2348 15.75102935  4975
STARLINK-36732          
1 67813U 26032S   26069.92631697  .00279246  00000+0  18058-2 0  9997
2 67813  97.2846 256.5567 0001057  69.3970 290.7408 15.75275775  4988
