CCSDS_OMM_VERS = 2.0
CREATION_DATE  = 
ORIGINATOR     = 

OBJECT_NAME    = STARLINK-36739
OBJECT_ID      = 2026-032F
CENTER_NAME    = EARTH
REF_FRAME      = TEME
TIME_SYSTEM    = UTC
MEAN_ELEMENT_THEORY = SGP/SGP4

EPOCH          = 2026-03-10T22:34:44.028768
MEAN_MOTION    = 15.75281975
ECCENTRICITY   = .00014522
INCLINATION    = 97.2854
RA_OF_ASC_NODE = 256.5405
ARG_OF_PERICENTER = 82.3033
MEAN_ANOMALY   = 277.8397

EPHEMERIS_TYPE = 0
CLASSIFICATION_TYPE = U
NORAD_CAT_ID   = 67802
ELEMENT_SET_NO = 999
REV_AT_EPOCH   = 498
BSTAR          = .18718394E-2
MEAN_MOTION_DOT = .289908E-2
MEAN_MOTION_DDOT = 0

CCSDS_OMM_VERS = 2.0
CREATION_DATE  = 
ORIGINATOR     = 

OBJECT_NAME    = STARLINK-36768
OBJECT_ID      = 2026-032G
CENTER_NAME    = EARTH
REF_FRAME      = TEME
TIME_SYSTEM    = UTC
MEAN_ELEMENT_THEORY = SGP/SGP4

EPOCH          = 2026-03-10T22:52:31.920672
MEAN_MOTION    = 15.75291727
ECCENTRICITY   = .00014465
INCLINATION    = 97.2845
RA_OF_ASC_NODE = 256.5230
ARG_OF_PERICENTER = 71.4107
MEAN_ANOMALY   = 288.7315

EPHEMERIS_TYPE = 0
CLASSIFICATION_TYPE = U
NORAD_CAT_ID   = 67803
ELEMENT_SET_NO = 999
REV_AT_EPOCH   = 498
BSTAR          = .16698066E-2
MEAN_MOTION_DOT = .257728E-2
MEAN_MOTION_DDOT = 0

CCSDS_OMM_VERS = 2.0
CREATION_DATE  = 
ORIGINATOR     = 

OBJECT_NAME    = STARLINK-36792
OBJECT_ID      = 2026-032H
CENTER_NAME    = EARTH
REF_FRAME      = TEME
TIME_SYSTEM    = UTC
MEAN_ELEMENT_THEORY = SGP/SGP4

EPOCH          = 2026-03-10T22:56:04.812000
MEAN_MOTION    = 15.75227678
ECCENTRICITY   = .00017903
INCLINATION    = 97.2849
RA_OF_ASC_NODE = 256.5192
ARG_OF_PERICENTER = 88.7035
MEAN_ANOMALY   = 271.4435

EPHEMERIS_TYPE = 0
CLASSIFICATION_TYPE = U
NORAD_CAT_ID   = 67804
ELEMENT_SET_NO = 999
REV_AT_EPOCH   = 498
BSTAR          = .10576058E-2
MEAN_MOTION_DOT = .16089E-2
MEAN_MOTION_DDOT = 0

CCSDS_OMM_VERS = 2.0
CREATION_DATE  = 
ORIGINATOR     = 

OBJECT_NAME    = STARLINK-36782
OBJECT_ID      = 2026-032J
CENTER_NAME    = EARTH
REF_FRAME      = TEME
TIME_SYSTEM    = UTC
MEAN_ELEMENT_THEORY = SGP/SGP4

EPOCH          = 2026-03-10T22:00:03.000096
MEAN_MOTION    = 15.75184696
ECCENTRICITY   = .00012153
INCLINATION    = 97.2847
RA_OF_ASC_NODE = 256.5373
ARG_OF_PERICENTER = 92.3853
MEAN_ANOMALY   = 187.2492

EPHEMERIS_TYPE = 0
CLASSIFICATION_TYPE = U
NORAD_CAT_ID   = 67805
ELEMENT_SET_NO = 999
REV_AT_EPOCH   = 497
BSTAR          = -.18120043E-3
MEAN_MOTION_DOT = -.27065E-3
MEAN_MOTION_DDOT = 0

CCSDS_OMM_VERS = 2.0
CREATION_DATE  = 
ORIGINATOR     = 

OBJECT_NAME    = STARLINK-36389
OBJECT_ID      = 2026-032K
CENTER_NAME    = EARTH
REF_FRAME      = TEME
TIME_SYSTEM    = UTC
MEAN_ELEMENT_THEORY = SGP/SGP4

EPOCH          = 2026-03-10T22:39:48.938688
MEAN_MOTION    = 15.75276904
ECCENTRICITY   = .00015787
INCLINATION    = 97.2846
RA_OF_ASC_NODE = 256.5340
ARG_OF_PERICENTER = 84.9994
MEAN_ANOMALY   = 275.1452

EPHEMERIS_TYPE = 0
CLASSIFICATION_TYPE = U
NORAD_CAT_ID   = 67806
ELEMENT_SET_NO = 999
REV_AT_EPOCH   = 498
BSTAR          = .18056734E-2
MEAN_MOTION_DOT = .279241E-2
MEAN_MOTION_DDOT = 0

CCSDS_OMM_VERS = 2.0
CREATION_DATE  = 
ORIGINATOR     = 

OBJECT_NAME    = STARLINK-36382
OBJECT_ID      = 2026-032L
CENTER_NAME    = EARTH
REF_FRAME      = TEME
TIME_SYSTEM    = UTC
MEAN_ELEMENT_THEORY = SGP/SGP4

EPOCH          = 2026-03-10T22:36:45.950400
MEAN_MOTION    = 15.75289934
ECCENTRICITY   = .00013005
INCLINATION    = 97.2848
RA_OF_ASC_NODE = 256.5364
ARG_OF_PERICENTER = 82.7371
MEAN_ANOMALY   = 277.4042

EPHEMERIS_TYPE = 0
CLASSIFICATION_TYPE = U
NORAD_CAT_ID   = 67807
ELEMENT_SET_NO = 999
REV_AT_EPOCH   = 498
BSTAR          = .21248218E-2
MEAN_MOTION_DOT = .330822E-2
MEAN_MOTION_DDOT = 0

CCSDS_OMM_VERS = 2.0
CREATION_DATE  = 
ORIGINATOR     = 

OBJECT_NAME    = STARLINK-36811
OBJECT_ID      = 2026-032M
CENTER_NAME    = EARTH
REF_FRAME      = TEME
TIME_SYSTEM    = UTC
MEAN_ELEMENT_THEORY = SGP/SGP4

EPOCH          = 2026-03-10T22:22:32.221632
MEAN_MOTION    = 15.75274346
ECCENTRICITY   = .00016638
INCLINATION    = 97.2849
RA_OF_ASC_NODE = 256.5511
ARG_OF_PERICENTER = 51.9937
MEAN_ANOMALY   = 308.1478

EPHEMERIS_TYPE = 0
CLASSIFICATION_TYPE = U
NORAD_CAT_ID   = 67808
ELEMENT_SET_NO = 999
REV_AT_EPOCH   = 498
BSTAR          = .18302646E-2
MEAN_MOTION_DOT = .283145E-2
MEAN_MOTION_DDOT = 0

CCSDS_OMM_VERS = 2.0
CREATION_DATE  = 
ORIGINATOR     = 

OBJECT_NAME    = STARLINK-36795
OBJECT_ID      = 2026-032N
CENTER_NAME    = EARTH
REF_FRAME      = TEME
TIME_SYSTEM    = UTC
MEAN_ELEMENT_THEORY = SGP/SGP4

EPOCH          = 2026-03-10T22:46:55.606080
MEAN_MOTION    = 15.75284304
ECCENTRICITY   = .00018613
INCLINATION    = 97.2847
RA_OF_ASC_NODE = 256.5268
ARG_OF_PERICENTER = 71.7312
MEAN_ANOMALY   = 288.4155

EPHEMERIS_TYPE = 0
CLASSIFICATION_TYPE = U
NORAD_CAT_ID   = 67809
ELEMENT_SET_NO = 999
REV_AT_EPOCH   = 498
BSTAR          = .18303413E-2
MEAN_MOTION_DOT = .283284E-2
MEAN_MOTION_DDOT = 0

CCSDS_OMM_VERS = 2.0
CREATION_DATE  = 
ORIGINATOR     = 

OBJECT_NAME    = STARLINK-36807
OBJECT_ID      = 2026-032P
CENTER_NAME    = EARTH
REF_FRAME      = TEME
TIME_SYSTEM    = UTC
MEAN_ELEMENT_THEORY = SGP/SGP4

EPOCH          = 2026-03-10T22:24:03.656160
MEAN_MOTION    = 15.75254671
ECCENTRICITY   = .00012365
INCLINATION    = 97.2851
RA_OF_ASC_NODE = 256.5481
ARG_OF_PERICENTER = 57.9135
MEAN_ANOMALY   = 302.2250

EPHEMERIS_TYPE = 0
CLASSIFICATION_TYPE = U
NORAD_CAT_ID   = 67810
ELEMENT_SET_NO = 999
REV_AT_EPOCH   = 498
BSTAR          = .1465514E-2
MEAN_MOTION_DOT = .224945E-2
MEAN_MOTION_DDOT = 0

CCSDS_OMM_VERS = 2.0
CREATION_DATE  = 
ORIGINATOR     = 

OBJECT_NAME    = STARLINK-36733
OBJECT_ID      = 2026-032Q
CENTER_NAME    = EARTH
REF_FRAME      = TEME
TIME_SYSTEM    = UTC
MEAN_ELEMENT_THEORY = SGP/SGP4

EPOCH          = 2026-03-10T22:00:03.000096
MEAN_MOTION    = 15.75110938
ECCENTRICITY   = .00014562
INCLINATION    = 97.2843
RA_OF_ASC_NODE = 256.5538
ARG_OF_PERICENTER = 88.8108
MEAN_ANOMALY   = 230.8364

EPHEMERIS_TYPE = 0
CLASSIFICATION_TYPE = U
NORAD_CAT_ID   = 67811
ELEMENT_SET_NO = 999
REV_AT_EPOCH   = 497
BSTAR          = .11081813E-2
MEAN_MOTION_DOT = .167877E-2
MEAN_MOTION_DDOT = 0

CCSDS_OMM_VERS = 2.0
CREATION_DATE  = 
ORIGINATOR     = 

OBJECT_NAME    = STARLINK-36377
OBJECT_ID      = 2026-032R
CENTER_NAME    = EARTH
REF_FRAME      = TEME
TIME_SYSTEM    = UTC
MEAN_ELEMENT_THEORY = SGP/SGP4

EPOCH          = 2026-03-10T22:00:03.000096
MEAN_MOTION    = 15.75102935
ECCENTRICITY   = .00012669
INCLINATION    = 97.2845
RA_OF_ASC_NODE = 256.5601
ARG_OF_PERICENTER = 81.4124
MEAN_ANOMALY   = 252.2348

EPHEMERIS_TYPE = 0
CLASSIFICATION_TYPE = U
NORAD_CAT_ID   = 67812
ELEMENT_SET_NO = 999
REV_AT_EPOCH   = 497
BSTAR          = .11573741E-2
MEAN_MOTION_DOT = .17543E-2
MEAN_MOTION_DDOT = 0

CCSDS_OMM_VERS = 2.0
CREATION_DATE  = 
ORIGINATOR     = 

OBJECT_NAME    = STARLINK-36732
OBJECT_ID      = 2026-032S
CENTER_NAME    = EARTH
REF_FRAME      = TEME
TIME_SYSTEM    = UTC
MEAN_ELEMENT_THEORY = SGP/SGP4

EPOCH          = 2026-03-10T22:13:53.786208
MEAN_MOTION    = 15.75275775
ECCENTRICITY   = .00010575
INCLINATION    = 97.2846
RA_OF_ASC_NODE = 256.5567
ARG_OF_PERICENTER = 69.3970
MEAN_ANOMALY   = 290.7408

EPHEMERIS_TYPE = 0
CLASSIFICATION_TYPE = U
NORAD_CAT_ID   = 67813
ELEMENT_SET_NO = 999
REV_AT_EPOCH   = 498
BSTAR          = .1805779E-2
MEAN_MOTION_DOT = .279246E-2
MEAN_MOTION_DDOT = 0

